{"type": "FeatureCollection", "features": [ {"type": "Feature", "properties": {"norad_id": 28649, "name": "IRS-P5 (CARTOSAT-1)", "group": "resource", "lat": -29.3139191329522, "lon": 29.295560013293876, "alt_km": 602.5124999334594, "timestamp": "2025-12-25T03:55:55.962715+00:00", "meta": {"OBJECT_NAME": "IRS-P5 (CARTOSAT-1)", "OBJECT_ID": "2005-017A", "EPOCH": "2025-12-24T20:00:30.341664", "MEAN_MOTION": 14.90443218, "ECCENTRICITY": 5.2e-05, "INCLINATION": 97.5483, "RA_OF_ASC_NODE": 24.7102, "ARG_OF_PERICENTER": 63.0227, "MEAN_ANOMALY": 297.1045, "EPHEMERIS_TYPE": 0, "CLASSIFICATION_TYPE": "U", "NORAD_CAT_ID": 28649, "ELEMENT_SET_NO": 999, "REV_AT_EPOCH": 11784, "BSTAR": 0.00016645, "MEAN_MOTION_DOT": 1.57e-05, "MEAN_MOTION_DDOT": 0}, "tle": {"line1": "1 28649U 05017A   25358.83368451  .00001570  00000+0  16645-3 0  9990", "line2": "2 28649  97.5483  24.7102 0000520  63.0227 297.1045 14.90443218117845"}}, "geometry": {"type": "Point", "coordinates": [29.295560013293876, -29.3139191329522]}}, {"type": "Feature", "properties": {"norad_id": 28893, "name": "SINAH 1", "group": "resource", "lat": -42.710272698552664, "lon": -59.95252159042926, "alt_km": 692.9456100007346, "timestamp": "2025-12-25T03:55:55.962726+00:00", "meta": {"OBJECT_NAME": "SINAH 1", "OBJECT_ID": "2005-043D", "EPOCH": "2025-12-24T20:21:21.489696", "MEAN_MOTION": 14.63974698, "ECCENTRICITY": 0.0015726, "INCLINATION": 98.2609, "RA_OF_ASC_NODE": 127.4383, "ARG_OF_PERICENTER": 101.7079, "MEAN_ANOMALY": 258.5889, "EPHEMERIS_TYPE": 0, "CLASSIFICATION_TYPE": "U", "NORAD_CAT_ID": 28893, "ELEMENT_SET_NO": 999, "REV_AT_EPOCH": 7501, "BSTAR": 9.3349e-05, "MEAN_MOTION_DOT": 4.41e-06, "MEAN_MOTION_DDOT": 0}, "tle": {"line1": "1 28893U 05043D   25358.84816539  .00000441  00000+0  93349-4 0  9999", "line2": "2 28893  98.2609 127.4383 0015726 101.7079 258.5889 14.63974698 75015"}}, "geometry": {"type": "Point", "coordinates": [-59.95252159042926, -42.710272698552664]}}, {"type": "Feature", "properties": {"norad_id": 29079, "name": "EROS B", "group": "resource", "lat": -62.09329760912094, "lon": 130.46250070103892, "alt_km": 356.5547548311997, "timestamp": "2025-12-25T03:55:55.962738+00:00", "meta": {"OBJECT_NAME": "EROS B", "OBJECT_ID": "2006-014A", "EPOCH": "2025-12-24T20:33:44.165952", "MEAN_MOTION": 15.72221993, "ECCENTRICITY": 0.0004356, "INCLINATION": 97.3452, "RA_OF_ASC_NODE": 116.0418, "ARG_OF_PERICENTER": 312.6984, "MEAN_ANOMALY": 47.3912, "EPHEMERIS_TYPE": 0, "CLASSIFICATION_TYPE": "U", "NORAD_CAT_ID": 29079, "ELEMENT_SET_NO": 999, "REV_AT_EPOCH": 9270, "BSTAR": 0.0015134, "MEAN_MOTION_DOT": 0.00203674, "MEAN_MOTION_DDOT": 0}, "tle": {"line1": "1 29079U 06014A   25358.85676118  .00203674  00000+0  15134-2 0  9990", "line2": "2 29079  97.3452 116.0418 0004356 312.6984  47.3912 15.72221993 92706"}}, "geometry": {"type": "Point", "coordinates": [130.46250070103892, -62.09329760912094]}}, {"type": "Feature", "properties": {"norad_id": 29228, "name": "RESURS-DK 1", "group": "resource", "lat": 15.880296082264119, "lon": -116.23926171429116, "alt_km": 529.0912332898661, "timestamp": "2025-12-25T03:55:55.962749+00:00", "meta": {"OBJECT_NAME": "RESURS-DK 1", "OBJECT_ID": "2006-021A", "EPOCH": "2025-12-24T14:30:47.969568", "MEAN_MOTION": 15.12224408, "ECCENTRICITY": 0.0006899, "INCLINATION": 69.9337, "RA_OF_ASC_NODE": 71.174, "ARG_OF_PERICENTER": 248.2576, "MEAN_ANOMALY": 111.7856, "EPHEMERIS_TYPE": 0, "CLASSIFICATION_TYPE": "U", "NORAD_CAT_ID": 29228, "ELEMENT_SET_NO": 999, "REV_AT_EPOCH": 7617, "BSTAR": 0.00017407, "MEAN_MOTION_DOT": 2.909e-05, "MEAN_MOTION_DDOT": 0}, "tle": {"line1": "1 29228U 06021A   25358.60472187  .00002909  00000+0  17407-3 0  9991", "line2": "2 29228  69.9337  71.1740 0006899 248.2576 111.7856 15.12224408 76177"}}, "geometry": {"type": "Point", "coordinates": [-116.23926171429116, 15.880296082264119]}}, {"type": "Feature", "properties": {"norad_id": 29268, "name": "ARIRANG-2 (KOMPSAT-2)", "group": "resource", "lat": 28.027471215447783, "lon": 11.229450064782796, "alt_km": 681.3538547542921, "timestamp": "2025-12-25T03:55:55.962760+00:00", "meta": {"OBJECT_NAME": "ARIRANG-2 (KOMPSAT-2)", "OBJECT_ID": "2006-031A", "EPOCH": "2025-12-24T21:09:21.009024", "MEAN_MOTION": 14.64505149, "ECCENTRICITY": 0.0013135, "INCLINATION": 97.8256, "RA_OF_ASC_NODE": 186.7626, "ARG_OF_PERICENTER": 267.3648, "MEAN_ANOMALY": 196.6459, "EPHEMERIS_TYPE": 0, "CLASSIFICATION_TYPE": "U", "NORAD_CAT_ID": 29268, "ELEMENT_SET_NO": 999, "REV_AT_EPOCH": 3596, "BSTAR": 0.00014737, "MEAN_MOTION_DOT": 7.37e-06, "MEAN_MOTION_DDOT": 0}, "tle": {"line1": "1 29268U 06031A   25358.88149316  .00000737  00000+0  14737-3 0  9991", "line2": "2 29268  97.8256 186.7626 0013135 267.3648 196.6459 14.64505149 35963"}}, "geometry": {"type": "Point", "coordinates": [11.229450064782796, 28.027471215447783]}}, {"type": "Feature", "properties": {"norad_id": 29709, "name": "LAPAN-TUBSAT", "group": "resource", "lat": -46.989010530122776, "lon": -1.613661484439852, "alt_km": 617.3694297693146, "timestamp": "2025-12-25T03:55:55.962771+00:00", "meta": {"OBJECT_NAME": "LAPAN-TUBSAT", "OBJECT_ID": "2007-001A", "EPOCH": "2025-12-24T21:40:49.105632", "MEAN_MOTION": 14.85686705, "ECCENTRICITY": 0.0013221, "INCLINATION": 98.1264, "RA_OF_ASC_NODE": 349.3098, "ARG_OF_PERICENTER": 37.9639, "MEAN_ANOMALY": 322.2505, "EPHEMERIS_TYPE": 0, "CLASSIFICATION_TYPE": "U", "NORAD_CAT_ID": 29709, "ELEMENT_SET_NO": 999, "REV_AT_EPOCH": 2527, "BSTAR": 1.9689e-05, "MEAN_MOTION_DOT": 1.13e-06, "MEAN_MOTION_DDOT": 0}, "tle": {"line1": "1 29709U 07001A   25358.90334613  .00000113  00000+0  19689-4 0  9998", "line2": "2 29709  98.1264 349.3098 0013221  37.9639 322.2505 14.85686705 25276"}}, "geometry": {"type": "Point", "coordinates": [-1.613661484439852, -46.989010530122776]}}, {"type": "Feature", "properties": {"norad_id": 31113, "name": "HAIYANG-1B", "group": "resource", "lat": -80.69696285174793, "lon": 46.40202519209866, "alt_km": 795.5192073712196, "timestamp": "2025-12-25T03:55:55.962782+00:00", "meta": {"OBJECT_NAME": "HAIYANG-1B", "OBJECT_ID": "2007-010A", "EPOCH": "2025-12-24T19:56:29.461056", "MEAN_MOTION": 14.30968874, "ECCENTRICITY": 0.0013616, "INCLINATION": 98.3329, "RA_OF_ASC_NODE": 342.6101, "ARG_OF_PERICENTER": 3.3672, "MEAN_ANOMALY": 356.7601, "EPHEMERIS_TYPE": 0, "CLASSIFICATION_TYPE": "U", "NORAD_CAT_ID": 31113, "ELEMENT_SET_NO": 999, "REV_AT_EPOCH": 97569, "BSTAR": 5.82e-05, "MEAN_MOTION_DOT": 1.12e-06, "MEAN_MOTION_DDOT": 0}, "tle": {"line1": "1 31113U 07010A   25358.83089654  .00000112  00000+0  58200-4 0  9995", "line2": "2 31113  98.3329 342.6101 0013616   3.3672 356.7601 14.30968874975694"}}, "geometry": {"type": "Point", "coordinates": [46.40202519209866, -80.69696285174793]}}, {"type": "Feature", "properties": {"norad_id": 31598, "name": "COSMO-SKYMED 1", "group": "resource", "lat": 0.8035078043290952, "lon": -175.46622252328174, "alt_km": 582.4417213780225, "timestamp": "2025-12-25T03:55:55.962793+00:00", "meta": {"OBJECT_NAME": "COSMO-SKYMED 1", "OBJECT_ID": "2007-023A", "EPOCH": "2025-12-24T19:54:05.270688", "MEAN_MOTION": 14.95853242, "ECCENTRICITY": 0.0001284, "INCLINATION": 97.884, "RA_OF_ASC_NODE": 184.3084, "ARG_OF_PERICENTER": 78.1165, "MEAN_ANOMALY": 282.02, "EPHEMERIS_TYPE": 0, "CLASSIFICATION_TYPE": "U", "NORAD_CAT_ID": 31598, "ELEMENT_SET_NO": 999, "REV_AT_EPOCH": 371, "BSTAR": 0.00028493, "MEAN_MOTION_DOT": 3.125e-05, "MEAN_MOTION_DDOT": 0}, "tle": {"line1": "1 31598U 07023A   25358.82922767  .00003125  00000+0  28493-3 0  9993", "line2": "2 31598  97.8840 184.3084 0001284  78.1165 282.0200 14.95853242  3713"}}, "geometry": {"type": "Point", "coordinates": [-175.46622252328174, 0.8035078043290952]}}, {"type": "Feature", "properties": {"norad_id": 31698, "name": "TERRASAR-X", "group": "resource", "lat": -21.218365426588846, "lon": 7.272481044260593, "alt_km": 513.9789019964419, "timestamp": "2025-12-25T03:55:55.962811+00:00", "meta": {"OBJECT_NAME": "TERRASAR-X", "OBJECT_ID": "2007-026A", "EPOCH": "2025-12-24T13:47:55.330080", "MEAN_MOTION": 15.19151427, "ECCENTRICITY": 0.0001815, "INCLINATION": 97.4444, "RA_OF_ASC_NODE": 3.7823, "ARG_OF_PERICENTER": 79.9991, "MEAN_ANOMALY": 280.1449, "EPHEMERIS_TYPE": 0, "CLASSIFICATION_TYPE": "U", "NORAD_CAT_ID": 31698, "ELEMENT_SET_NO": 999, "REV_AT_EPOCH": 2671, "BSTAR": 4.817e-05, "MEAN_MOTION_DOT": 9.45e-06, "MEAN_MOTION_DDOT": 0}, "tle": {"line1": "1 31698U 07026A   25358.57494595  .00000945  00000+0  48170-4 0  9994", "line2": "2 31698  97.4444   3.7823 0001815  79.9991 280.1449 15.19151427 26713"}}, "geometry": {"type": "Point", "coordinates": [7.272481044260593, -21.218365426588846]}}, {"type": "Feature", "properties": {"norad_id": 32060, "name": "WORLDVIEW-1 (WV-1)", "group": "resource", "lat": -33.369079200989866, "lon": -68.43567670444176, "alt_km": 501.8812330380706, "timestamp": "2025-12-25T03:55:55.962834+00:00", "meta": {"OBJECT_NAME": "WORLDVIEW-1 (WV-1)", "OBJECT_ID": "2007-041A", "EPOCH": "2025-12-24T19:07:06.327264", "MEAN_MOTION": 15.23950436, "ECCENTRICITY": 0.0003195, "INCLINATION": 97.3828, "RA_OF_ASC_NODE": 116.1016, "ARG_OF_PERICENTER": 356.2904, "MEAN_ANOMALY": 3.8309, "EPHEMERIS_TYPE": 0, "CLASSIFICATION_TYPE": "U", "NORAD_CAT_ID": 32060, "ELEMENT_SET_NO": 999, "REV_AT_EPOCH": 1631, "BSTAR": 0.00035414, "MEAN_MOTION_DOT": 8.498e-05, "MEAN_MOTION_DDOT": 0}, "tle": {"line1": "1 32060U 07041A   25358.79660101  .00008498  00000+0  35414-3 0  9994", "line2": "2 32060  97.3828 116.1016 0003195 356.2904   3.8309 15.23950436 16315"}}, "geometry": {"type": "Point", "coordinates": [-68.43567670444176, -33.369079200989866]}}]}